[{"OBJECT_NAME":"STARLINK-30098","OBJECT_ID":"2023-056G","EPOCH":"2026-03-09T22:00:01.999584","MEAN_MOTION":15.26731442,"ECCENTRICITY":0.00014577,"INCLINATION":42.9993,"RA_OF_ASC_NODE":207.4282,"ARG_OF_PERICENTER":276.8725,"MEAN_ANOMALY":205.3816,"EPHEMERIS_TYPE":0,"CLASSIFICATION_TYPE":"U","NORAD_CAT_ID":56292,"ELEMENT_SET_NO":999,"REV_AT_EPOCH":572,"BSTAR":0.0017071631,"MEAN_MOTION_DOT":0.00045806,"MEAN_MOTION_DDOT":0},{"OBJECT_NAME":"FLOCK 4G-22","OBJECT_ID":"2025-009AN","EPOCH":"2026-03-09T22:51:40.689792","MEAN_MOTION":15.2720903,"ECCENTRICITY":8.959e-5,"INCLINATION":97.4046,"RA_OF_ASC_NODE":151.5884,"ARG_OF_PERICENTER":284.1963,"MEAN_ANOMALY":75.9176,"EPHEMERIS_TYPE":0,"CLASSIFICATION_TYPE":"U","NORAD_CAT_ID":62645,"ELEMENT_SET_NO":999,"REV_AT_EPOCH":6376,"BSTAR":0.00049035383,"MEAN_MOTION_DOT":0.00013013,"MEAN_MOTION_DDOT":0}]
